{
  "type": "FeatureCollection",
  "features": [
    {
      "type": "Feature",
      "properties": {
        "norad_id": 66704,
        "name": "FLOCK 4H-1",
        "group": "last-30-days",
        "lat": 23.145764704789993,
        "lon": 69.11283632516074,
        "alt_km": 517.7098256673571,
        "timestamp": "2025-12-26T18:39:30.996549+00:00",
        "meta_object_name": "FLOCK 4H-1",
        "meta_object_id": "2025-276AQ",
        "meta_epoch": "2025-12-26T10:38:47.389920",
        "meta_mean_motion": 15.18178768,
        "meta_eccentricity": 0.00163261,
        "meta_inclination": 97.4387,
        "meta_ra_of_asc_node": 71.9864,
        "meta_arg_of_pericenter": 150.9763,
        "meta_mean_anomaly": 209.2383,
        "meta_ephemeris_type": 0,
        "meta_classification_type": "U",
        "meta_norad_cat_id": 66704,
        "meta_element_set_no": 999,
        "meta_rev_at_epoch": 420,
        "meta_bstar": -0.0013733594,
        "meta_mean_motion_dot": -0.00028105,
        "meta_mean_motion_ddot": 0,
        "tle_line1": "1 66704U 25276AQ  25360.44360405 -.00028105  00000+0 -13734-2 0  9994",
        "tle_line2": "2 66704  97.4387  71.9864 0016326 150.9763 209.2383 15.18178768  4202"
      },
      "geometry": {
        "type": "Point",
        "coordinates": [
          69.11283632516074,
          23.145764704789993
        ]
      }
    },
    {
      "type": "Feature",
      "properties": {
        "norad_id": 66705,
        "name": "FLOCK 4H-2",
        "group": "last-30-days",
        "lat": 26.15846108091389,
        "lon": 68.63200942869781,
        "alt_km": 511.0879478801353,
        "timestamp": "2025-12-26T18:39:30.996559+00:00",
        "meta_object_name": "FLOCK 4H-2",
        "meta_object_id": "2025-276AR",
        "meta_epoch": "2025-12-26T13:47:49.780608",
        "meta_mean_motion": 15.18189866,
        "meta_eccentricity": 0.00015584,
        "meta_inclination": 97.437,
        "meta_ra_of_asc_node": 72.1114,
        "meta_arg_of_pericenter": 152.2941,
        "meta_mean_anomaly": 207.8377,
        "meta_ephemeris_type": 0,
        "meta_classification_type": "U",
        "meta_norad_cat_id": 66705,
        "meta_element_set_no": 999,
        "meta_rev_at_epoch": 422,
        "meta_bstar": 0.00039260197,
        "meta_mean_motion_dot": 7.962e-05,
        "meta_mean_motion_ddot": 0,
        "tle_line1": "1 66705U 25276AR  25360.57488172  .00007962  00000+0  39260-3 0  9990",
        "tle_line2": "2 66705  97.4370  72.1114 0001558 152.2941 207.8377 15.18189866  4220"
      },
      "geometry": {
        "type": "Point",
        "coordinates": [
          68.63200942869781,
          26.15846108091389
        ]
      }
    },
    {
      "type": "Feature",
      "properties": {
        "norad_id": 66706,
        "name": "FLOCK 4H-3",
        "group": "last-30-days",
        "lat": -37.04650486492806,
        "lon": 77.97368093911224,
        "alt_km": 519.942511701176,
        "timestamp": "2025-12-26T18:39:30.996570+00:00",
        "meta_object_name": "FLOCK 4H-3",
        "meta_object_id": "2025-276AS",
        "meta_epoch": "2025-12-26T10:54:37.901376",
        "meta_mean_motion": 15.17518184,
        "meta_eccentricity": 0.00030536,
        "meta_inclination": 97.4437,
        "meta_ra_of_asc_node": 71.9927,
        "meta_arg_of_pericenter": 229.091,
        "meta_mean_anomaly": 131.006,
        "meta_ephemeris_type": 0,
        "meta_classification_type": "U",
        "meta_norad_cat_id": 66706,
        "meta_element_set_no": 999,
        "meta_rev_at_epoch": 420,
        "meta_bstar": 0.00027008531,
        "meta_mean_motion_dot": 5.35e-05,
        "meta_mean_motion_ddot": 0,
        "tle_line1": "1 66706U 25276AS  25360.45460534  .00005350  00000+0  27009-3 0  9997",
        "tle_line2": "2 66706  97.4437  71.9927 0003053 229.0910 131.0060 15.17518184  4208"
      },
      "geometry": {
        "type": "Point",
        "coordinates": [
          77.97368093911224,
          -37.04650486492806
        ]
      }
    },
    {
      "type": "Feature",
      "properties": {
        "norad_id": 66707,
        "name": "FLOCK 4H-4",
        "group": "last-30-days",
        "lat": -61.669772342610415,
        "lon": 86.32504332468112,
        "alt_km": 520.2513902129285,
        "timestamp": "2025-12-26T18:39:30.996580+00:00",
        "meta_object_name": "FLOCK 4H-4",
        "meta_object_id": "2025-276AT",
        "meta_epoch": "2025-12-26T14:11:08.301984",
        "meta_mean_motion": 15.17253363,
        "meta_eccentricity": 0.0003676,
        "meta_inclination": 97.4422,
        "meta_ra_of_asc_node": 72.1101,
        "meta_arg_of_pericenter": 233.5448,
        "meta_mean_anomaly": 126.5447,
        "meta_ephemeris_type": 0,
        "meta_classification_type": "U",
        "meta_norad_cat_id": 66707,
        "meta_element_set_no": 999,
        "meta_rev_at_epoch": 422,
        "meta_bstar": 0.00034772509,
        "meta_mean_motion_dot": 6.857e-05,
        "meta_mean_motion_ddot": 0,
        "tle_line1": "1 66707U 25276AT  25360.59106831  .00006857  00000+0  34773-3 0  9999",
        "tle_line2": "2 66707  97.4422  72.1101 0003676 233.5448 126.5447 15.17253363  4222"
      },
      "geometry": {
        "type": "Point",
        "coordinates": [
          86.32504332468112,
          -61.669772342610415
        ]
      }
    },
    {
      "type": "Feature",
      "properties": {
        "norad_id": 66708,
        "name": "FLOCK 4H-5",
        "group": "last-30-days",
        "lat": 32.97229875631766,
        "lon": 67.45574994530963,
        "alt_km": 509.34535501745995,
        "timestamp": "2025-12-26T18:39:30.996589+00:00",
        "meta_object_name": "FLOCK 4H-5",
        "meta_object_id": "2025-276AU",
        "meta_epoch": "2025-12-26T13:46:01.222464",
        "meta_mean_motion": 15.1821274,
        "meta_eccentricity": 0.00013065,
        "meta_inclination": 97.4376,
        "meta_ra_of_asc_node": 72.1168,
        "meta_arg_of_pericenter": 126.7441,
        "meta_mean_anomaly": 233.3913,
        "meta_ephemeris_type": 0,
        "meta_classification_type": "U",
        "meta_norad_cat_id": 66708,
        "meta_element_set_no": 999,
        "meta_rev_at_epoch": 422,
        "meta_bstar": 0.00036130623,
        "meta_mean_motion_dot": 7.326e-05,
        "meta_mean_motion_ddot": 0,
        "tle_line1": "1 66708U 25276AU  25360.57362526  .00007326  00000+0  36131-3 0  9995",
        "tle_line2": "2 66708  97.4376  72.1168 0001306 126.7441 233.3913 15.18212740  4228"
      },
      "geometry": {
        "type": "Point",
        "coordinates": [
          67.45574994530963,
          32.97229875631766
        ]
      }
    },
    {
      "type": "Feature",
      "properties": {
        "norad_id": 66709,
        "name": "FLOCK 4H-6",
        "group": "last-30-days",
        "lat": 9.657215215970819,
        "lon": 71.05350598629758,
        "alt_km": 515.7706725758344,
        "timestamp": "2025-12-26T18:39:30.996599+00:00",
        "meta_object_name": "FLOCK 4H-6",
        "meta_object_id": "2025-276AV",
        "meta_epoch": "2025-12-26T13:52:10.474464",
        "meta_mean_motion": 15.17962022,
        "meta_eccentricity": 0.00029628,
        "meta_inclination": 97.4425,
        "meta_ra_of_asc_node": 72.1319,
        "meta_arg_of_pericenter": 192.7569,
        "meta_mean_anomaly": 167.359,
        "meta_ephemeris_type": 0,
        "meta_classification_type": "U",
        "meta_norad_cat_id": 66709,
        "meta_element_set_no": 999,
        "meta_rev_at_epoch": 422,
        "meta_bstar": 0.00049329109,
        "meta_mean_motion_dot": 9.959e-05,
        "meta_mean_motion_ddot": 0,
        "tle_line1": "1 66709U 25276AV  25360.57789901  .00009959  00000+0  49329-3 0  9993",
        "tle_line2": "2 66709  97.4425  72.1319 0002962 192.7569 167.3590 15.17962022  4226"
      },
      "geometry": {
        "type": "Point",
        "coordinates": [
          71.05350598629758,
          9.657215215970819
        ]
      }
    },
    {
      "type": "Feature",
      "properties": {
        "norad_id": 66710,
        "name": "FLOCK 4H-7",
        "group": "last-30-days",
        "lat": -36.095484395691166,
        "lon": 77.75170429454938,
        "alt_km": 519.3699830122969,
        "timestamp": "2025-12-26T18:39:30.996611+00:00",
        "meta_object_name": "FLOCK 4H-7",
        "meta_object_id": "2025-276AW",
        "meta_epoch": "2025-12-26T10:54:22.660416",
        "meta_mean_motion": 15.1752849,
        "meta_eccentricity": 0.00010088,
        "meta_inclination": 97.4383,
        "meta_ra_of_asc_node": 71.9685,
        "meta_arg_of_pericenter": 262.1322,
        "meta_mean_anomaly": 97.9798,
        "meta_ephemeris_type": 0,
        "meta_classification_type": "U",
        "meta_norad_cat_id": 66710,
        "meta_element_set_no": 999,
        "meta_rev_at_epoch": 420,
        "meta_bstar": 0.00028156023,
        "meta_mean_motion_dot": 5.582e-05,
        "meta_mean_motion_ddot": 0,
        "tle_line1": "1 66710U 25276AW  25360.45442894  .00005582  00000+0  28156-3 0  9992",
        "tle_line2": "2 66710  97.4383  71.9685 0001008 262.1322  97.9798 15.17528490  4206"
      },
      "geometry": {
        "type": "Point",
        "coordinates": [
          77.75170429454938,
          -36.095484395691166
        ]
      }
    }
  ]
}